First Name,Last Name,Street,City,Zip,State,Country
Hollee,Barry,"P.O. Box 349, 9518 Odio. St.",Istanbul,UY1X 1GC,Ist,Martinique
Walker,Daniels,812-9777 Ut Ave,Contagem,9220SM,Minas Gerais,France
Samson,Hobbs,Ap #429-7922 Venenatis St.,Dandenong,49270,VIC,Canada
Leonard,Oneill,428-8370 Aliquam Ave,Olympia,8629,WA,Costa Rica
Fritz,Vincent,"4307 Mi, Avenue",Berlin,07316,Berlin,Gibraltar
Nelle,Hubbard,Ap #129-3192 Arcu St.,Istanbul,2177,Ist,Belgium
Raymond,Williams,Ap #774-9496 Per St.,Ravenstein,11161,Noord Brabant,Albania
Octavius,Briggs,"Ap #340-8542 Risus, Road",Warszawa,36047,MA,Benin
Deirdre,Mccray,"P.O. Box 106, 3312 Donec Rd.",Pellezzano,11015,CAM,Colombia
Cheryl,Cooke,"P.O. Box 313, 1042 Vitae Road",Motueka,7319,South Island,United States
Adria,Horn,Ap #741-3708 Iaculis Road,Faridabad,92207,HR,"Virgin Islands, United States"
Adrian,Benjamin,"P.O. Box 777, 3028 Auctor Avenue",Dublin,84680,L,Libya
Aline,Higgins,"P.O. Box 435, 7636 Felis. St.",Tacoma,10443-442,Washington,Bangladesh
Reese,Haynes,707-1240 Gravida. Street,Lleida,62219,CA,South Sudan
Carissa,Beasley,Ap #753-2895 Quisque Road,Bremen,51715,HB,Oman
Steel,Cooke,917-3809 Orci Avenue,Develi,30514,Kay,Armenia
Hillary,Daugherty,"P.O. Box 512, 4810 Cursus, Street",Galway,2275,Connacht,Nauru
India,Macias,902-6324 Consequat Street,Uberlândia,31904,MG,Zambia
Tatiana,Barr,1315 At Ave,Frederick,38645,MD,Antarctica
Patricia,Ayers,810-8778 Vivamus Street,Ribeirão Preto,34740,SP,"Virgin Islands, United States"
Inga,Holt,"P.O. Box 114, 4656 Montes, St.",Markkleeberg,73406,SN,Haiti
Iliana,Haynes,3138 Aliquam Av.,Toledo,2160,CM,Spain
Leroy,Alston,969-3481 Commodo Rd.,Tulita,5895,NT,Saint Martin
Chantale,Hansen,"P.O. Box 239, 5797 Dis Rd.",Kano,9590,KN,Togo
Leo,Vaughan,"162-1107 Facilisis, Rd.",Sandy,6721,Utah,Martinique
Judith,Figueroa,"P.O. Box 761, 2719 Maecenas Rd.",Cork,954329,Munster,Bhutan
Finn,Logan,4565 Volutpat. Rd.,Cumberland,6415,Ontario,Guinea
Ariana,Nelson,"P.O. Box 352, 3683 Elit Avenue",Kirriemuir,B6S 9G6,Angus,Dominica
Barrett,Carter,Ap #288-3110 Proin Avenue,Denver,2225,Colorado,Brunei
Priscilla,Leon,"Ap #358-2558 Eget, Avenue",Purral,339529,San José,Trinidad and Tobago
Adele,Gonzalez,Ap #370-2601 Pede. Road,Richmond,43422,Virginia,Costa Rica
Jillian,Espinoza,Ap #244-589 Risus. Rd.,Gold Coast,97602,Queensland,Svalbard and Jan Mayen Islands
Uriah,Aguirre,8421 Tellus Av.,Rockville,57169,Maryland,Sao Tome and Principe
Justina,Donaldson,Ap #401-2027 Mollis. Ave,Aparecida de Goiânia,88794,Goiás,Niger
Benedict,Frank,Ap #550-4021 Quis Rd.,Dublin,4982,Leinster,Central African Republic
Burke,Vang,"P.O. Box 556, 5992 Sollicitudin Ave",Nieuwmunster,17000,West-Vlaanderen,Tanzania
Gillian,Rodgers,863-7452 Tortor. St.,Zaria,6670YU,KD,Iceland
Stuart,Watts,456-2993 Duis St.,Dublin,31212,L,Saint Barthélemy
Kay,Huffman,Ap #753-9544 Arcu. Road,Sint-Joost-ten-Node,JQ3P 6IP,Brussels Hoofdstedelijk Gewest,Finland
Orla,Mccoy,Ap #908-407 Orci St.,Istanbul,8694,Istanbul,Guadeloupe
Scott,Manning,6845 Amet Rd.,Workum,3290,Fr,Palau
Hadley,Sims,"P.O. Box 549, 8332 Mauris. Rd.",Masterton,5551,NI,Senegal
Rhiannon,Kent,Ap #841-2306 Ante Rd.,Schleswig,17168,SH,Puerto Rico
Brock,Burris,"P.O. Box 816, 254 Sed Av.",Nanded,5325,MH,Maldives
Merrill,Cleveland,5602 Mauris Avenue,Białystok,54920-983,PD,Russian Federation
Knox,Carpenter,9952 Neque Street,Proddatur,41212,Andhra Pradesh,Saint Pierre and Miquelon
Neve,Bryan,884 Cras Av.,Ulloa (Barrial),162170,H,Germany
Aiko,Slater,840-2360 Donec Av.,Oviedo,14-660,Principado de Asturias,Burundi
Jana,Obrien,2178 Mauris St.,Bairnsdale,1191,VIC,"Korea, North"
Nina,Emerson,Ap #120-7349 Quam Street,Arnhem,64985-036,Gelderland,Norway
Shellie,Simon,748-3445 Proin St.,Duluth,95735,Minnesota,Luxembourg
Elmo,Talley,553-2136 Maecenas Street,Mustafakemalpaşa,11406,Bursa,Pakistan
Baxter,Gibson,251-5646 Semper Avenue,Ijebu Ode,6623,OG,Philippines
Simone,Lee,509-3419 Quisque Rd.,Istanbul,8949,Ist,China
Maile,Randolph,260-4956 Id St.,Dunkerque,4181,Nord-Pas-de-Calais,"Virgin Islands, British"
Alan,Paul,1255 Lorem Rd.,Konin,18044,Wielkopolskie,Togo
Ali,Hogan,Ap #246-3685 Nibh. Street,Hawera,15018-270,NI,Zimbabwe
Zephania,Wolfe,"P.O. Box 943, 5756 Tristique Street",Fort Laird,03157,Northwest Territories,Aruba
Cecilia,Dyer,Ap #805-5540 Porttitor Rd.,Siedlce,10982,MA,Uganda
Tad,Bennett,Ap #205-6738 Magnis Ave,Cork,74258,M,Tokelau
Aubrey,Reid,Ap #259-8014 Dolor Ave,Cádiz,2939,Andalucía,Croatia
Justina,Vega,543-648 Arcu. St.,Kaduna,7579,Kaduna,"Saint Helena, Ascension and Tristan da Cunha"
Zane,Carney,"P.O. Box 599, 7475 Et Ave",Dublin,06788,Leinster,Estonia
Hamish,Norris,"P.O. Box 981, 4155 Placerat, St.",Vienna,77165,Vienna,Japan
Chastity,Chandler,"772-3494 Id, St.",Rosolini,28929,SIC,Dominica
Aretha,Nixon,1432 Eu Street,Hamburg,9702,HH,Madagascar
Mona,Moody,305-2237 Felis. Av.,Rignano Garganico,16761-929,PUG,Portugal
Callie,Cole,4504 Dignissim Rd.,Vancouver,3830,Washington,Singapore
Nadine,Monroe,9104 Mi Rd.,Baden,8071,Lower Austria,Netherlands
Selma,Holloway,438-6966 Et Rd.,Galway,J2T 7P4,Connacht,Poland
Hanae,Lucas,"359-3299 Sem, Avenue",Saint-Maur-des-Fossés,39226,Île-de-France,United Kingdom (Great Britain)
Maggy,Larsen,"P.O. Box 653, 9336 Varius Road",Folx-les-Caves,G0B 9W0,WB,Guyana
Jaime,Barnett,5679 Enim. Rd.,Radom,71416,MA,Brunei
Evangeline,Tucker,Ap #402-4490 Mi St.,Richmond,39963,Virginia,Bangladesh
Allistair,Flores,8792 In Avenue,Chetwynd,7519FX,BC,Canada
Erica,Maldonado,4282 Eget Rd.,Missoula,P8S 2N6,Montana,Western Sahara
Megan,Orr,3923 Sed Av.,Kearny,2474,ON,Belize
Benedict,Meadows,415-3111 Et Road,Chapra,88864,Bihar,Mexico
Cecilia,Vinson,806-8387 Sit St.,Montgomery,J6Y 0MO,Montgomeryshire,Philippines
Rhiannon,Salas,Ap #217-8357 Arcu. Rd.,Darbhanga,677494,BR,"Saint Helena, Ascension and Tristan da Cunha"
Keelie,Hodges,605-1829 Massa. Street,Getafe,85002,MA,Burkina Faso
Christian,Mejia,233-5339 Ante Ave,Sunshine Coast Regional District,7205CO,BC,New Zealand
Adele,Finch,"4691 Ante, Av.",Alajuela,86983,Alajuela,Malaysia
Katell,Patrick,423-4654 Risus Av.,Cork,773251,M,Panama
Jarrod,Parker,823-3809 Arcu Street,Caplan,7772,QC,Solomon Islands
Gisela,Maddox,Ap #858-6768 Malesuada St.,Brussegem,60565,Vlaams-Brabant,Macedonia
Molly,Weiss,"924-5769 Egestas, St.",Olinda,120335,PE,Iran
Hermione,Poole,"P.O. Box 183, 2837 Euismod Road",Vienna,54-856,Vienna,Samoa
Brynn,Day,Ap #563-6361 Justo Road,East Gwillimbury,L1P 7R8,Ontario,Cameroon
Tana,Donaldson,Ap #326-8429 Sem Av.,Cavallino,4822LW,Puglia,Monaco
Rinah,Maddox,Ap #916-1261 Augue Ave,A Coruña,45264,Galicia,Gambia
Linda,Albert,201-9368 Metus Rd.,Woodlands County,8155TJ,AB,Bulgaria
Wing,Spencer,"P.O. Box 829, 8961 Hendrerit Road",Quesada,72427,Alajuela,Comoros
Gail,Richmond,124-2199 Tempor Road,Siverek,266544,Şanlıurfa,Greece
Davis,Davidson,809-6893 Sit Av.,Piotrków Trybunalski,83564,LD,Argentina
Abbot,Carr,"952-5167 Non, Av.",Aalbeke,55258,WV,Samoa
Jena,Horne,"P.O. Box 383, 8688 Mollis Avenue",Parramatta,5360,New South Wales,Faroe Islands
Ainsley,Patel,Ap #741-3480 Proin Ave,La Seyne-sur-Mer,2946,Provence-Alpes-Côte d'Azur,Hong Kong
Yolanda,Hinton,4079 Arcu. Rd.,Curitiba,H2T 9S7,Paraná,Latvia
Daniel,Vincent,782-1916 Viverra. Rd.,Kapiti,82438,North Island,Peru
Tobias,Chen,"P.O. Box 989, 6394 Aliquam Rd.",Cambridge,60705,NI,Singapore
Lucas,Mccarthy,"P.O. Box 209, 7515 Sagittis Rd.",Whakatane,3496TD,North Island,Belarus
Darius,Stark,"P.O. Box 791, 3741 Luctus. St.",Toruń,47213,Kujawsko-pomorskie,Greece
Sierra,Carney,172-1307 Dolor. Avenue,Redcliffe,17475,Queensland,Reunion
Hedy,Short,"P.O. Box 918, 3082 Semper. Ave",Gaithersburg,20068,Maryland,New Caledonia
TaShya,Padilla,"P.O. Box 641, 9523 Arcu Street",Cork,728185,Munster,Guadeloupe
Xanthus,Waller,Ap #590-2893 Pellentesque Avenue,Vienna,34441-277,Wie,Curaçao
Levi,Fuller,948-2897 Sapien St.,A Coruña,5952,Galicia,Angola
Kelly,Wilkinson,5886 Porttitor Rd.,Rocky View,17310-923,AB,Slovakia
Heather,Alvarado,Ap #115-4545 At Rd.,Córdoba,M8R 7A8,AN,Monaco
Keefe,Preston,"P.O. Box 897, 4308 Diam. Road",Vienna,7029,Wie,Suriname
Ignacia,Mejia,Ap #296-2689 Quisque St.,Alkmaar,374272,Noord Holland,Zambia
Yardley,Whitaker,3944 Parturient Rd.,Charters Towers,64757,Queensland,Ghana
Kiara,Rojas,"Ap #628-5600 Convallis, St.",Piła,71302,Wielkopolskie,Ghana
Harriet,Morgan,704-747 Sed Street,Rutland,78099,VT,Bolivia
Felicia,Chaney,7244 Amet St.,Salem,95975,Oregon,Egypt
Olga,Mercado,240-8431 Adipiscing Av.,Sabadell,189428,Catalunya,Marshall Islands
Cain,Mathews,Ap #274-3548 Nam Ave,Terneuzen,575279,Zeeland,Fiji
Astra,Church,489-1603 Elit St.,Belfast,36697,Ulster,Seychelles
Vielka,Hess,"624-7823 Vel, Rd.",Galway,85292,Connacht,Philippines
Steven,Cameron,Ap #870-8255 Ridiculus Road,Wangaratta,883362,VIC,Cayman Islands
Claire,Byrd,Ap #617-7366 Per St.,Cairns,72428,QLD,Central African Republic
Lacota,Lloyd,864-4728 Congue St.,Darıca,1461,Kocaeli,Jamaica
Kiayada,Burnett,5086 Ante Av.,Waitakere,8861NU,NI,Mozambique
Stacy,Phillips,Ap #941-3620 Mus. Road,Newark,4484HG,Nottinghamshire,Suriname
Barry,Cash,Ap #513-6196 Integer St.,Berlin,78-744,BE,Armenia
Lionel,Franklin,Ap #994-4314 Nonummy Av.,Malahide,77606,ON,Ireland
Hunter,Hernandez,4748 Pellentesque Street,Silchar,P68 5IO,Assam,Afghanistan
Tanisha,Tate,"144 Nec, St.",Lexington,98855,KY,Wallis and Futuna
Nicholas,Bryan,"P.O. Box 913, 2307 Gravida. Avenue",Lithgow,3445,New South Wales,Namibia
Reese,Woodard,731-1081 A Rd.,Aubervilliers,9939,Île-de-France,United Kingdom (Great Britain)
Macey,Haynes,"P.O. Box 880, 8005 Nec Street",Dehri,1665,BR,Venezuela
Lev,Stewart,"P.O. Box 653, 692 Ridiculus Ave",Wolfurt,3580,Vorarlberg,Nicaragua
Lesley,Hernandez,"1379 Tellus, St.",Galway,N0K 0S8,C,Ecuador
Pamela,Clarke,1139 Praesent Road,Aulnay-sous-Bois,527809,IL,Oman
Maggy,Kirk,1179 Mauris Ave,İzmit,26706,Kocaeli,"Palestine, State of"
Aladdin,Boyle,"205-5810 Orci, St.",Gouda,88218,Z.,Gibraltar
Erich,Mcleod,"Ap #471-2921 In, Av.",Sint-Jans-Molenbeek,2039,Brussels Hoofdstedelijk Gewest,Trinidad and Tobago
Malachi,Sweet,"P.O. Box 586, 276 Varius. Street",North Shore,14608-570,NI,Croatia
Hakeem,Bass,"P.O. Box 507, 8119 Tempus, Rd.",Seattle,6194,Washington,Hungary
Angela,Blair,840-2341 Pretium Av.,Lagos,04143,LA,Angola
Amber,Cannon,7161 Tellus St.,Vienna,11758,Vienna,Laos
Sage,Lara,"P.O. Box 285, 4536 Ante. St.",Płock,2569,Mazowieckie,Guernsey
Miranda,Dodson,2825 Et St.,Shivapuri,9976PU,Madhya Pradesh,Heard Island and Mcdonald Islands
Madeson,Mckay,Ap #163-3203 Felis. Rd.,Chestermere,0926HK,Alberta,Singapore
Boris,Brooks,Ap #449-402 Vitae Street,Hamburg,14519,HH,Hungary
Kalia,Maxwell,4179 Tristique Ave,Dos Hermanas,7876XP,AN,Viet Nam
Jolie,Kaufman,"P.O. Box 643, 3975 Molestie Rd.",Mission,15079,BC,Liechtenstein
Wyoming,Gomez,934-8415 Volutpat. Rd.,Liévin,2075MU,NO,French Southern Territories
Solomon,Page,"P.O. Box 940, 2722 Malesuada Road",Waiheke Island,92448-053,North Island,Sudan
Bert,Browning,255 Natoque Av.,Vienna,57672,Wie,Cuba
Malachi,Acosta,"P.O. Box 448, 1291 Eu Rd.",Sioux City,N4H 7V3,Iowa,Sierra Leone
Logan,Schmidt,1007 Dignissim Street,Manisa,14507,Man,Norway
Ella,Sullivan,3600 Blandit St.,Cork,57758,M,Holy See (Vatican City State)
Mason,Stewart,314-1409 Nisl Rd.,Fort Worth,R3A 3LM,TX,Chile
Paula,Perez,411-1919 Tincidunt. Avenue,Vienna,8703,Vienna,Namibia
Taylor,Rivas,"P.O. Box 939, 7686 In Rd.",South Bend,02833,Indiana,Bangladesh
Felix,Michael,783-2655 Nullam Avenue,Dublin,29954,Leinster,Jordan
Theodore,Anthony,652-9854 Felis. Rd.,Berlin,6649,BE,Haiti
Robert,Small,"P.O. Box 701, 8521 Metus. Road",Dreux,4233,Centre,Egypt
Chase,Love,"856-2452 Ornare, Street",Alkmaar,93639-792,Noord Holland,Sao Tome and Principe
Alvin,Fields,9850 Nisi Ave,Lanester,7461,Bretagne,Gambia
Deanna,Jacobson,Ap #456-7802 Id Ave,Delhi,90568,DL,Argentina
Barrett,Dillard,2000 Semper St.,Panihati,1209,West Bengal,San Marino
Eve,Roach,Ap #890-5258 In St.,Kano,9496,KN,Anguilla
Felix,Haney,681-6800 Pharetra Street,Dunedin,08600,South Island,Romania
Clio,Greer,3301 Eu St.,Warren,7099PJ,Michigan,Eritrea
Raymond,Benjamin,7657 Pede. St.,Geertruidenberg,29745,N.,Norfolk Island
Jaden,Weaver,176-7923 Parturient Ave,South Perth,925632,Western Australia,"Korea, North"
Alisa,Kirk,168-1616 Imperdiet Avenue,Istanbul,9522,Ist,Finland
Isaiah,Mcknight,8990 Iaculis Rd.,Macklin,69591,Saskatchewan,Algeria
Colette,Mcfarland,"792-6136 Dui, Rd.",Balfour,21989,OK,Haiti
Montana,Silva,Ap #742-7265 Praesent Ave,Lithgow,75176,NSW,Anguilla
Aline,Drake,"P.O. Box 509, 8440 Aliquet. Ave",Ulloa (Barrial),DI8B 0ZS,H,Kyrgyzstan
Silas,Sosa,"708-3182 Vel, St.",Middelburg,97037,Zl,Iceland
Claire,Bradford,Ap #602-5305 Luctus St.,Gelsenkirchen,9249,NW,Egypt
Abbot,Cameron,2587 Augue. Road,Newbury,89618,Ontario,Fiji
Branden,Whitfield,"P.O. Box 165, 654 Tellus St.",Alajuela,PH1 2RG,Alajuela,Italy
Kylynn,Lynn,7738 A Street,Bozeman,74340-146,MT,Finland
Montana,Bolton,6767 Quis Street,Dublin,1604,Leinster,Reunion
Ella,House,"P.O. Box 137, 7097 Sem Rd.",San Gregorio nelle Alpi,25773-947,VEN,British Indian Ocean Territory
Joel,Walker,512-3445 Quam St.,Belfast,XO7T 3WR,Ulster,Tuvalu
Roary,Mccormick,Ap #625-8589 Arcu. Rd.,Orange,7121SH,New South Wales,Saint Pierre and Miquelon
Ethan,Norton,404-2041 Felis. St.,Vienna,9177,Vienna,Bhutan
Palmer,Riggs,958-4343 Cursus St.,Benalla,38985,VIC,Algeria
Amery,Leonard,"P.O. Box 444, 5730 Posuere Av.",Houthalen,723829,L.,Chile
Preston,Payne,402-9339 Arcu. Rd.,Cleveland,547200,OH,Tuvalu
Orlando,Harvey,2469 Porttitor Road,Bydgoszcz,76753,Kujawsko-pomorskie,Kyrgyzstan
Thomas,Dudley,"P.O. Box 183, 6646 Molestie Rd.",Ospedaletto Lodigiano,79019,LOM,Montserrat
Lavinia,Cain,"P.O. Box 119, 8038 Mauris Rd.",Estevan,3019,Saskatchewan,Zimbabwe
Wallace,Carrillo,582-8553 Nulla Av.,Silvan,24762,Diyarbakır,Kenya
Ezekiel,Poole,Ap #301-9005 Sagittis. Rd.,Saintes,3547MS,PO,Indonesia
Amelia,Wood,Ap #812-5583 Enim Rd.,Galway,X0K 1K0,Connacht,Serbia
Ali,Sellers,745-1296 Proin Ave,Saalfelden am Steinernen Meer,0909CP,Salzburg,Saint Martin
Jarrod,Waters,9191 Felis St.,Katowice,16-217,Sląskie,Benin
Hedy,Gay,6803 Curabitur Rd.,Molfetta,28511,PUG,Lesotho
Zachary,Elliott,642-5032 Dui. Av.,San José,6194,SJ,Uzbekistan
Cleo,Meyers,"P.O. Box 801, 5293 Eu, Avenue",Hilo,28175,HI,Sao Tome and Principe
Delilah,Brown,3269 Est Rd.,Waalwijk,40000,Noord Brabant,Hungary
Kevin,Simmons,Ap #587-4779 Lacinia Rd.,Hamburg,48496,HH,Saint Pierre and Miquelon
Benjamin,Jefferson,"P.O. Box 998, 7528 Elementum Avenue",Heredia,6824,Heredia,Mauritius
Raymond,Mcconnell,697-3225 Eget Road,Eindhoven,709267,N.,Belgium
Jarrod,Rosales,"P.O. Box 412, 3046 Urna Rd.",Vienna,S3X 9C2,Vienna,Isle of Man
Flavia,Hatfield,639-2038 Donec Avenue,Vallepietra,18169,Lazio,Svalbard and Jan Mayen Islands
Lewis,Morales,Ap #692-7850 Vel Street,Belfast,M8A 0PE,U,Albania
Zachery,Nichols,"P.O. Box 121, 8786 Sed Rd.",Gasteiz,238321,Euskadi,Guernsey
Merrill,Rojas,"P.O. Box 421, 6911 Commodo Avenue",Katsina,68015,Katsina,Pakistan
Quinn,Holder,150 Tristique St.,Petrópolis,62206,RJ,Sao Tome and Principe
Naida,Whitaker,745-5072 Justo. Road,LaSalle,552011,ON,Austria
Aubrey,Ross,Ap #927-7944 Tellus St.,Hamilton,370915,NI,France
Audra,Roach,Ap #606-7735 Gravida. Rd.,Tulita,407952,NT,Liberia
Mallory,Fox,Ap #201-4733 Ante Rd.,Oamaru,85590,South Island,Gabon
Audra,Tran,6572 Sed Street,Kawerau,488292,North Island,Heard Island and Mcdonald Islands
Christopher,Berry,605-4859 Neque. St.,Gondiya,8159,MH,Svalbard and Jan Mayen Islands
Dahlia,Lowe,6966 Tellus Ave,Santander,20514,CA,Cyprus
Kelsey,Goff,"P.O. Box 597, 6808 Lobortis Ave",Tracadie-Shelia,71967-389,New Brunswick,Saudi Arabia
Valentine,Battle,667-5449 Risus Road,Melbourne,9088,Victoria,Turkmenistan
Alyssa,Carlson,Ap #551-4495 Praesent Street,Anamur,2976,Mersin,Serbia
Blossom,Keller,"P.O. Box 200, 9845 Arcu St.",Nelson,33940,South Island,Cambodia
Rana,Simpson,735-9903 Risus. Av.,Castletown,E4X 5R2,CA,Poland
Quinlan,Barron,306-3035 Lacus. Street,Warszawa,28833-572,Mazowieckie,Uzbekistan
Perry,Hester,8076 Interdum. Ave,Preston,7453,LA,Canada
Jesse,Wooten,Ap #797-2372 Per Rd.,Pontevedra,16114,GA,Azerbaijan
Ulla,Hansen,"P.O. Box 959, 497 Odio Rd.",Sydney,09116-125,NSW,Jamaica
Lara,Durham,7285 Felis. Street,Gijón,95534-477,Principado de Asturias,Iceland
Alexander,Holder,Ap #357-1219 Aliquet Road,Alcorcón,94768,Madrid,British Indian Ocean Territory
Haley,Porter,"Ap #759-1890 Vitae, Rd.",Galway,5449,Connacht,Sweden
Jessica,Moses,4230 Vitae Rd.,Broken Hill,71361,New South Wales,Paraguay
Shafira,Slater,"P.O. Box 139, 1085 Elementum, Rd.",Stalhille,8442,WV,Samoa
Rebecca,Sheppard,402-4177 Cursus Ave,Trowbridge,11812,WI,Armenia
Neville,Holcomb,"P.O. Box 618, 6561 Risus. St.",Birecik,42130,Şa,Portugal
Ann,Ward,"6580 Lacus, Avenue",Hamburg,00324,Hamburg,Equatorial Guinea
Laurel,Potter,Ap #209-7271 Nam St.,Napoli,866938,CAM,Uruguay
Karen,Berry,Ap #468-7452 Nunc Av.,Vienna,X4R 5EI,Vienna,"Palestine, State of"
Amy,Kane,337-4431 Nonummy Rd.,İskenderun,4992EG,Hatay,Bahamas
Shellie,Chaney,3823 Cras Avenue,Dover,91508,Kent,United States Minor Outlying Islands
Calista,Simpson,896-5975 Rhoncus Street,Maranguape,64634,CE,Slovenia
Kelly,Cummings,"P.O. Box 889, 3273 Nulla Rd.",Grave,60251,Noord Brabant,Cambodia
Halee,Reynolds,6304 Scelerisque Rd.,Galmaarden,312403,VB,Georgia
Norman,Rice,5648 Aliquet Avenue,Bremerhaven,26775,HB,Jordan
Nyssa,Logan,"P.O. Box 355, 9266 Lorem Ave",Enkhuizen,R80 8CU,N.,Andorra
Derek,Hanson,Ap #322-3656 Ultrices. Road,Şereflikoçhisar,1394,Ank,Nepal
Rashad,Rutledge,"P.O. Box 486, 1503 Vitae St.",Güssing,3368UJ,Bgl,Australia
Neil,Fields,875 Libero. Ave,Mangalore,3481,KA,Saint Pierre and Miquelon
Guinevere,Cherry,Ap #328-5375 Eget Av.,Galway,9019,Connacht,South Africa
Kirestin,Kennedy,989-7696 Phasellus Rd.,Westlock,44-292,AB,"Virgin Islands, United States"
Aurora,Gross,438-7410 Sed Rd.,Bientina,1904,Toscana,Kuwait
Addison,Holder,"P.O. Box 878, 262 Hendrerit Rd.",Valéncia,04593,CV,Costa Rica
Ethan,Kirk,7014 Vestibulum. Avenue,Borghetto di Borbera,34-927,Piemonte,Nepal
Derek,Colon,996-511 Molestie Road,Vienna,43281,Vienna,Singapore
Julie,Sosa,Ap #907-8941 Mauris St.,Istanbul,9250,Istanbul,"Palestine, State of"
Felicia,Simpson,902-8255 Diam St.,İzmit,63069,Kocaeli,Panama
Yoshio,Gillespie,1388 Lobortis Rd.,Kassel,25004,Hesse,India
Brooke,Grimes,3123 Eget Rd.,Barrhead,1774,AB,Saint Barthélemy
Lacota,Sanders,650-419 Donec Ave,Kędzierzyn-Koźle,31727,OP,Cambodia
Zelenia,Wolf,7530 Quisque Avenue,Bremerhaven,62152,Bremen,Russian Federation
Elijah,Medina,796 Malesuada Ave,Elx,59487,CV,Syria
Tate,Hubbard,Ap #489-9445 Sed Rd.,Hamburg,74082,HH,Nigeria
Irma,Holder,6483 Proin Ave,Chapra,640246,BR,Greece
Duncan,Carver,Ap #124-6533 Maecenas Av.,Bunbury,1148,Western Australia,New Caledonia
Joan,Nash,285-3756 Sagittis St.,Fresno,40016,California,Honduras
Jackson,Padilla,612-1598 Non St.,Tarvisio,38708,FVG,Mayotte
Elton,Briggs,6567 Aliquam Av.,Ilhéus,746749,BA,Kiribati
Seth,Barton,"P.O. Box 147, 5768 Fusce Avenue",Saint-Malo,863597,Bretagne,Swaziland
Tiger,Chandler,913-3445 Nec St.,Cork,S3W 1C2,Munster,Trinidad and Tobago
Sade,Davis,308-2912 Arcu. Rd.,Springfield,32328,MO,Macedonia
Marvin,Ward,"P.O. Box 273, 354 Arcu. Rd.",Casalbuono,5613,Campania,American Samoa
Rafael,Bauer,"Ap #815-7334 Quis, Rd.",Philadelphia,95396,PA,Sierra Leone
Connor,Dillard,Ap #326-7051 A St.,Sooke,86908,British Columbia,Montserrat
Nina,Barry,435-6747 Libero. Rd.,Campbelltown,147083,New South Wales,Andorra
Roth,Drake,5709 Nunc Rd.,Ostrowiec Świętokrzyski,0094GI,Swiętokrzyskie,Kazakhstan
Lareina,Roberson,388-6413 Lectus Rd.,Adelaide,5659,SA,Kenya
Alice,Mclean,486-5388 In Av.,Clovenfords,24-884,Selkirkshire,Wallis and Futuna
Katell,Davidson,Ap #107-1656 Nulla Rd.,Waitakere,0476,North Island,Japan
Regan,Finch,292-2074 Mauris St.,Ananindeua,15364,PA,Sri Lanka
Samuel,Newton,"P.O. Box 432, 9403 Fringilla Ave",Bergama,06838,İz,Mali
Xandra,Brennan,"748-9870 Eget, Ave",Istanbul,71-423,Istanbul,Samoa
Kelly,Munoz,"4193 Eu, Rd.",Etterbeek,91778-537,Brussels Hoofdstedelijk Gewest,Luxembourg
Fuller,Love,543-8159 Consectetuer Ave,Pozantı,21140,Ada,Syria
Jacob,Cannon,"Ap #252-5627 Pellentesque, Rd.",Bünyan,801126,Kayseri,Dominica
Logan,Walker,Ap #614-2457 Magna. Road,Campbelltown,4977,NSW,Viet Nam
Brandon,Horton,Ap #242-3543 Proin St.,Port Augusta,5476,SA,Norfolk Island
Megan,Jackson,"P.O. Box 735, 996 Praesent Street",Mersin,4244,Mer,Sierra Leone
Rigel,Martin,"P.O. Box 988, 5112 Non Av.",Meerut,K33 8MO,UP,"Saint Helena, Ascension and Tristan da Cunha"
Laurel,Cote,3939 Volutpat. Avenue,Toruń,45973,Kujawsko-pomorskie,Saint Barthélemy
Angelica,Taylor,"P.O. Box 129, 1417 Magna. Av.",San Antonio,365990,Texas,Angola
Roanna,Johnston,106-9576 Nam St.,Grafton,893271,NSW,Czech Republic
Darrel,Valentine,"9795 At, Av.",Dutse,87388,Jigawa,Brunei
September,Rodgers,Ap #225-6059 At St.,Maubeuge,01298-980,NO,Åland Islands
Maia,Hooper,435-5838 Amet Ave,Crato,1734,Ceará,Belarus
Nathan,Tate,3049 Tempor Av.,Wałbrzych,9064,Dolnośląskie,San Marino
Lynn,Daniel,467-4655 Lectus Ave,Gary,3229JY,Indiana,Norfolk Island
Ivan,Taylor,"P.O. Box 273, 7306 Interdum. Ave",Portree,96373,IN,Hungary
Ebony,King,"P.O. Box 594, 5670 Imperdiet Rd.",Greater Hobart,58196,Tasmania,Reunion
Odysseus,Hinton,"P.O. Box 797, 2236 Pellentesque Ave",Masterton,814129,NI,Curaçao
Zahir,Coffey,Ap #117-1298 Ultricies St.,Galway,KJ04 9KD,Connacht,Senegal
Bethany,Huff,6795 Phasellus Ave,Lauro de Freitas,86424,Bahia,"Congo, the Democratic Republic of the"
Mikayla,Hayes,2984 Vivamus Road,Blind River,6088,ON,Finland
Noble,Bullock,Ap #618-3120 Eu St.,Dublin,33644,L,Pakistan
Evan,Langley,2758 Sem Rd.,North Shore,7593,NI,Slovakia
Macon,Flynn,987-6989 Tempor St.,Bath,21156,SO,Rwanda
Shelby,Woodward,Ap #987-2409 Aliquam Ave,Bremerhaven,34657,Bremen,Norfolk Island
Chiquita,Donaldson,7078 Tincidunt Av.,Baltimore,62247,Maryland,Saint Barthélemy
Nicholas,Baldwin,Ap #411-9205 In St.,Tarnów,538139,MP,Myanmar
Alan,Norman,"682-8741 Quam, Av.",Bhagalpur,R0B 1E5,BR,Yemen
Theodore,Sawyer,"P.O. Box 689, 4089 Aliquet Road",Nagaon,21004,Assam,Bahamas
Ferdinand,Stokes,7904 Parturient Rd.,Uppingham. Cottesmore,49819-123,RU,Thailand
Fay,Sykes,621-9246 Diam. St.,Greater Hobart,4776,Tasmania,Kyrgyzstan
Emi,Jarvis,626-5727 Convallis Ave,Sevilla,51408,Andalucía,Mexico
Lillian,Riley,"P.O. Box 794, 6884 In Road",Ballarat,H7X 7PK,Victoria,Ireland
Jacob,Stein,"1314 Vestibulum, Road",Berlin,2179,Berlin,Armenia
Rudyard,Mcclain,2357 In Rd.,Orvault,2448,PA,Lebanon
Tucker,Lester,642-1225 Et Road,Wollongong,5150,New South Wales,Iran
Craig,Kidd,"P.O. Box 193, 8613 Cursus Rd.",Dublin,9759SI,Leinster,Lesotho
Samuel,Wood,Ap #496-9493 Vel Street,Quesada,74236,A,Maldives
Ramona,Allison,6815 Elementum Street,Mogi das Cruzes,13440-452,São Paulo,Spain
Salvador,Daugherty,Ap #530-9409 Sed St.,Bowden,70212,Alberta,Poland
Arsenio,Richardson,4253 Varius Street,Puri,71999,OR,Svalbard and Jan Mayen Islands
Channing,Callahan,"P.O. Box 254, 4102 Ipsum Avenue",Louisville,L6H 6Z4,Kentucky,Argentina
Marsden,Grant,413-8831 Nascetur St.,Erdemli,6348XJ,Mer,Saint Pierre and Miquelon
Camille,Sanchez,6171 Lorem. Rd.,Solingen,6690SZ,North Rhine-Westphalia,"Korea, North"
Nigel,Butler,"P.O. Box 953, 5864 Penatibus Avenue",Rio Saliceto,61718,Emilia-Romagna,United States
Baker,Lowe,"P.O. Box 227, 3082 Accumsan St.",Lochgilphead,86694,Argyllshire,South Africa
Cailin,Reese,"P.O. Box 177, 3402 Non, Street",Istanbul,8884,Ist,Turks and Caicos Islands
Ali,Collier,629-1137 Odio Ave,Marchienne-au-Pont,44599,HE,United Kingdom (Great Britain)
Deanna,Stafford,7742 Eget Avenue,Sooke,70864-424,British Columbia,Kazakhstan
Giacomo,Weaver,441-5573 Erat. Rd.,Cholet,71246,PA,Hong Kong
Audrey,Waller,854-9759 Ligula St.,Nelson,416693,British Columbia,Romania
Rana,Anthony,Ap #713-6633 A Street,Le Mans,61162,PA,Turkey
Fuller,Jarvis,Ap #300-4621 Augue St.,Stargard Szczeciński,4198,Zachodniopomorskie,Nepal
Roth,Mullins,"P.O. Box 534, 6565 Tellus Rd.",Bolzano Vicentino,239003,VEN,Guadeloupe
Malachi,Burch,"P.O. Box 244, 5921 Velit St.",Kano,9234QE,Kano,Bermuda
Alexa,Munoz,424-7716 Dignissim Road,Tarragona,60419,CA,San Marino
Medge,Irwin,643-9557 Consectetuer Rd.,Belfast,G8K 5G0,Ulster,Montserrat
Oleg,Wolf,"Ap #589-1333 Lorem, Avenue",Deventer,518289,Ov,Sao Tome and Principe
Ulla,Leach,"P.O. Box 357, 7175 Ut Ave",San Rafael,1538,A,Saudi Arabia
Madison,Cortez,"P.O. Box 102, 5518 Egestas. St.",Merrickville-Wolford,04459,ON,Tonga
Griffith,Silva,"P.O. Box 367, 1101 Mi St.",Rodez,275758,Midi-Pyrénées,Burkina Faso
Kenneth,Humphrey,"P.O. Box 631, 9052 Sed Ave",Anderlues,70107,HE,Switzerland
Ira,Schultz,3524 Bibendum Ave,Radom,8969,Mazowieckie,Mongolia
Ursula,Dudley,Ap #883-6717 Fusce Avenue,Whitby,D9 7NL,ON,Uruguay
Davis,Holt,9203 Arcu. Rd.,Yellowknife,4632,NT,Saint Vincent and The Grenadines
Lee,Hall,"1085 Nec, Ave",Kingston,10120,ON,Comoros
Clayton,Boyle,6779 Tempor Road,Birkenhead,1923,CH,Vanuatu
Rhoda,Schwartz,Ap #961-7411 Lacinia Av.,Marabá,68780-792,PA,Viet Nam
Gillian,Vincent,Ap #880-5692 Aliquam Av.,Cádiz,23888,AN,Jersey
Eugenia,Hogan,5189 Eu Rd.,Kalisz,1856,WP,Norfolk Island
Tasha,Campos,Ap #132-581 Non Rd.,Berlin,749353,BE,Grenada
Harriet,Roth,Ap #553-9618 Mus. Street,Cockburn,118602,WA,Anguilla
Diana,Marquez,294-597 Nisi St.,Jundiaí,97369,SP,Niger
Gray,Acevedo,"P.O. Box 804, 1861 Magna Av.",Erode,05069,TN,Bulgaria
Gail,Daniel,126-4474 Nulla. Rd.,Körfez,C2V 8P3,Koc,Montserrat
Yael,Hurley,Ap #835-3437 Consectetuer Rd.,Vienna,41595,Wie,Tunisia
Dominic,Thompson,Ap #461-4306 Ac Avenue,Thames,268230,North Island,Peru
Kasimir,Howell,Ap #103-3487 Lacus. Rd.,Dublin,5986,Leinster,United States Minor Outlying Islands
Theodore,Baird,761-5163 Nec Road,Belfast,4320,Ulster,Ghana
Shafira,Acevedo,"P.O. Box 407, 687 Massa. Road",Ikot Ekpene,C4E 4H6,Akwa Ibom,Tonga
Brady,Conway,"P.O. Box 765, 2490 Sit St.",Vico del Gargano,56376,Puglia,Niger
Fletcher,Palmer,Ap #256-2779 Pede. St.,Innisfail,68567,AB,Costa Rica
Cruz,Gardner,9306 Euismod St.,Quesada,84200,Alajuela,South Africa
Jocelyn,Dominguez,2601 Pede. Ave,Augusta,33020,GA,Kenya
Erasmus,Mcpherson,8598 Nascetur Av.,Diyarbakır,965638,Diy,Honduras
Hop,Cooley,495-1478 Curabitur Road,Gliwice,3070,SL,Saudi Arabia
Cally,Joyner,5451 Eu Ave,Gorinchem,WJ0 7IO,Z.,France
Armand,Raymond,Ap #977-9339 Vel Avenue,Arnesano,V9L 2V4,Puglia,Sweden
Chaney,Lara,354-7958 Phasellus Avenue,Alacant,5225,CV,Gibraltar
Nevada,Alexander,"1261 Id, St.",Igboho,33-662,Oyo,Guam
Lewis,Cross,411-6409 Curabitur St.,Nijlen,H48 1ZR,Antwerpen,Malaysia
Iola,Roth,"P.O. Box 865, 9350 Rutrum Road",Gresham,3270,Oregon,Aruba
Michael,Larson,"3912 Eget, Street",Bareilly,2956,UP,Malawi
Ariel,Ellis,"P.O. Box 356, 4899 Etiam Rd.",Belfast,48997,Ulster,Northern Mariana Islands
Ebony,Moore,"P.O. Box 428, 387 Enim, St.",Buguma,79233,RI,Azerbaijan
Isabella,Irwin,"P.O. Box 735, 8790 Sodales Road",D�sseldorf,E25 5NM,North Rhine-Westphalia,Comoros
Gabriel,Paul,"P.O. Box 457, 9750 Ridiculus Avenue",Konya,72-938,Konya,"Virgin Islands, British"
Destiny,Melton,Ap #140-3933 Blandit Rd.,Vrasene,6731,Oost-Vlaanderen,Portugal
Christen,Ingram,"P.O. Box 712, 2830 Ut, Road",Scarborough,5687,Ontario,Botswana
Abdul,Snyder,"P.O. Box 839, 9558 Etiam Ave",Lower Hutt,412271,North Island,French Polynesia
September,Drake,"P.O. Box 692, 5451 Elit, Av.",Berlin,47579,Berlin,Saint Martin
Hope,Miller,223-9280 Ullamcorper Rd.,Redlands,N9W 8K2,QLD,Curaçao
Graham,Velazquez,326-7887 Feugiat. Road,Vienna,96460-439,Vienna,Mauritania
Julian,Bean,"Ap #412-9241 Non, St.",Częstochowa,72580,SL,Singapore
Hayley,Burt,"P.O. Box 944, 4527 Sed Street",Mauá,75422,São Paulo,Svalbard and Jan Mayen Islands
Myles,Hampton,"P.O. Box 725, 7567 Ante. Rd.",Westkerke,1280,WV,Moldova
Maryam,Hodges,Ap #706-9909 Turpis Road,Prince Albert,53249,Saskatchewan,New Zealand
Paul,Haley,171-7447 Bibendum Ave,Grand-Manil,80700,NA,Cambodia
Scarlet,Mcdowell,"881-9868 Luctus, Rd.",Corswarem,41107,Luik,New Zealand
Joy,Doyle,3009 Tincidunt. Av.,L'Hospitalet de Llobregat,4543,Catalunya,Oman
Olivia,Roberson,Ap #694-4625 Phasellus Ave,Calais,43930,Nord-Pas-de-Calais,Kyrgyzstan
Elizabeth,Horn,"8539 Vitae, Ave",San José de Alajuela,09351-701,A,Senegal
Sharon,Andrews,Ap #308-654 Ipsum Street,Penrith,28344-102,Cumberland,Turks and Caicos Islands
Gwendolyn,Lowery,"P.O. Box 875, 2093 Luctus Av.",Puntarenas,15876,Puntarenas,Sri Lanka
Ferris,Miles,"Ap #119-2466 Egestas, Avenue",Gellik,S8P 2E3,Limburg,Nauru
Wendy,Hopper,3510 Aliquet Ave,Dhule,6565,Maharastra,Guam
Aspen,Keller,7480 Vel Rd.,Flin Flon,3345,Manitoba,Botswana
Lars,Reynolds,"266-2351 Id, St.",Stamford,B8P 2Y8,CT,Tajikistan
Barrett,Russo,"P.O. Box 898, 7571 Feugiat Av.",Gliwice,K7 4MR,Sląskie,Ethiopia
Dalton,Sherman,"P.O. Box 252, 428 Leo Ave",Fort Laird,43653,Northwest Territories,Czech Republic
Vladimir,Tyson,2423 Dolor Ave,Berlin,ZI4B 8ST,Berlin,Bahrain
Germane,Rhodes,467-7699 Magna. Ave,Bowling Green,874514,Kentucky,Niue
Travis,Moon,"P.O. Box 719, 7514 Morbi Av.",Dubbo,08600-553,New South Wales,Saint Lucia